start=new Date('2023-02-02T00:00:00.000Z').valueOf();
sats=[{"RCS_SIZE":"LARGE","APOAPSIS":"540.473","OBJECT_TYPE":"PAYLOAD","TLE_LINE1":"1 51111U 22005H   23032.63414336  .00000527  00000-0  51176-4 0  9996","COUNTRY_CODE":"US","EPOCH":"2023-02-01T15:13:09.986304","NORAD_CAT_ID":"51111","MEAN_ANOMALY":"279.9663","ECCENTRICITY":"0.00010490","TIME_SYSTEM":"UTC","OBJECT_NAME":"STARLINK-3173","PERIOD":"95.438","MEAN_MOTION":"15.08839507","MEAN_ELEMENT_THEORY":"SGP4","REV_AT_EPOCH":"5908","INCLINATION":"53.2160","ELEMENT_SET_NO":"999","CLASSIFICATION_TYPE":"U","DECAY_DATE":null,"PERIAPSIS":"539.021","ARG_OF_PERICENTER":"80.1448","MEAN_MOTION_DOT":"0.00000527","FILE":"3767634","CENTER_NAME":"EARTH","LAUNCH_DATE":"2022-01-19","GP_ID":"224203589","OBJECT_ID":"2022-005H","RA_OF_ASC_NODE":"331.1213","TLE_LINE2":"2 51111  53.2160 331.1213 0001049  80.1448 279.9663 15.08839507 59081","SITE":"AFETR","EPHEMERIS_TYPE":"0","SEMIMAJOR_AXIS":"6917.882","REF_FRAME":"TEME","BSTAR":"0.00005117600000","MEAN_MOTION_DDOT":"0.0000000000000"},{"MEAN_MOTION_DOT":"0.00011839","CENTER_NAME":"EARTH","FILE":"3767525","LAUNCH_DATE":"2022-01-19","PERIAPSIS":"538.893","DECAY_DATE":null,"ARG_OF_PERICENTER":"110.0877","ELEMENT_SET_NO":"999","CLASSIFICATION_TYPE":"U","MEAN_ELEMENT_THEORY":"SGP4","REV_AT_EPOCH":"5792","INCLINATION":"53.2164","SEMIMAJOR_AXIS":"6917.893","BSTAR":"0.00076076000000","REF_FRAME":"TEME","MEAN_MOTION_DDOT":"0.0000000000000","SITE":"AFETR","EPHEMERIS_TYPE":"0","RA_OF_ASC_NODE":"332.8050","OBJECT_ID":"2022-005J","TLE_LINE2":"2 51112  53.2164 332.8050 0001250 110.0877 250.0250 15.08835858 57924","GP_ID":"224198230","COUNTRY_CODE":"US","EPOCH":"2023-02-01T06:12:37.867968","TLE_LINE1":"1 51112U 22005J   23032.25877162  .00011839  00000-0  76076-3 0  9998","RCS_SIZE":"LARGE","OBJECT_TYPE":"PAYLOAD","APOAPSIS":"540.623","MEAN_MOTION":"15.08835858","PERIOD":"95.438","OBJECT_NAME":"STARLINK-3374","TIME_SYSTEM":"UTC","ECCENTRICITY":"0.00012500","NORAD_CAT_ID":"51112","MEAN_ANOMALY":"250.0250"},{"ARG_OF_PERICENTER":"81.5992","PERIAPSIS":"538.825","DECAY_DATE":null,"LAUNCH_DATE":"2022-01-19","FILE":"3767525","CENTER_NAME":"EARTH","MEAN_MOTION_DOT":"0.00005658","INCLINATION":"53.2182","REV_AT_EPOCH":"5791","MEAN_ELEMENT_THEORY":"SGP4","CLASSIFICATION_TYPE":"U","ELEMENT_SET_NO":"999","SITE":"AFETR","EPHEMERIS_TYPE":"0","MEAN_MOTION_DDOT":"0.0000000000000","REF_FRAME":"TEME","BSTAR":"0.00037314000000","SEMIMAJOR_AXIS":"6917.826","GP_ID":"224198980","TLE_LINE2":"2 51113  53.2182 332.8478 0001251  81.5992 278.5142 15.08857901 57917","OBJECT_ID":"2022-005K","RA_OF_ASC_NODE":"332.8478","TLE_LINE1":"1 51113U 22005K   23032.24773668  .00005658  00000-0  37314-3 0  9998","EPOCH":"2023-02-01T05:56:44.449152","COUNTRY_CODE":"US","APOAPSIS":"540.556","OBJECT_TYPE":"PAYLOAD","RCS_SIZE":"LARGE","OBJECT_NAME":"STARLINK-3372","PERIOD":"95.436","MEAN_MOTION":"15.08857901","MEAN_ANOMALY":"278.5142","NORAD_CAT_ID":"51113","ECCENTRICITY":"0.00012510","TIME_SYSTEM":"UTC"},{"SITE":"AFETR","EPHEMERIS_TYPE":"0","REF_FRAME":"TEME","BSTAR":"0.00069995000000","SEMIMAJOR_AXIS":"6917.832","MEAN_MOTION_DDOT":"0.0000000000000","GP_ID":"224197728","OBJECT_ID":"2022-005L","RA_OF_ASC_NODE":"332.7764","TLE_LINE2":"2 51114  53.2154 332.7764 0001310  89.0014 271.1128 15.08855991 57929","DECAY_DATE":null,"PERIAPSIS":"538.790","ARG_OF_PERICENTER":"89.0014","MEAN_MOTION_DOT":"0.00010874","LAUNCH_DATE":"2022-01-19","FILE":"3767525","CENTER_NAME":"EARTH","MEAN_ELEMENT_THEORY":"SGP4","REV_AT_EPOCH":"5792","INCLINATION":"53.2154","ELEMENT_SET_NO":"999","CLASSIFICATION_TYPE":"U","OBJECT_NAME":"STARLINK-3375","PERIOD":"95.437","MEAN_MOTION":"15.08855991","NORAD_CAT_ID":"51114","MEAN_ANOMALY":"271.1128","TIME_SYSTEM":"UTC","ECCENTRICITY":"0.00013100","TLE_LINE1":"1 51114U 22005L   23032.26613886  .00010874  00000-0  69995-3 0  9992","EPOCH":"2023-02-01T06:23:14.397504","COUNTRY_CODE":"US","RCS_SIZE":"LARGE","OBJECT_TYPE":"PAYLOAD","APOAPSIS":"540.603"},{"BSTAR":"-0.00000021727000","REF_FRAME":"TEME","SEMIMAJOR_AXIS":"6917.902","MEAN_MOTION_DDOT":"0.0000000000000","EPHEMERIS_TYPE":"0","SITE":"AFETR","OBJECT_ID":"2022-005M","RA_OF_ASC_NODE":"330.5010","TLE_LINE2":"2 51115  53.2178 330.5010 0001026 116.9146 243.1951 15.08832861 59102","GP_ID":"224203100","MEAN_MOTION_DOT":"-0.00000291","FILE":"3767635","LAUNCH_DATE":"2022-01-19","CENTER_NAME":"EARTH","DECAY_DATE":null,"PERIAPSIS":"539.057","ARG_OF_PERICENTER":"116.9146","ELEMENT_SET_NO":"999","CLASSIFICATION_TYPE":"U","INCLINATION":"53.2178","REV_AT_EPOCH":"5910","MEAN_ELEMENT_THEORY":"SGP4","PERIOD":"95.438","MEAN_MOTION":"15.08832861","OBJECT_NAME":"STARLINK-3397","ECCENTRICITY":"0.00010260","TIME_SYSTEM":"UTC","NORAD_CAT_ID":"51115","MEAN_ANOMALY":"243.1951","EPOCH":"2023-02-01T18:29:14.494560","COUNTRY_CODE":"US","TLE_LINE1":"1 51115U 22005M   23032.77030665 -.00000291  00000-0 -21727-6 0  9995","RCS_SIZE":"LARGE","APOAPSIS":"540.477","OBJECT_TYPE":"PAYLOAD"},{"SITE":"AFETR","EPHEMERIS_TYPE":"0","MEAN_MOTION_DDOT":"0.0000000000000","SEMIMAJOR_AXIS":"6917.831","REF_FRAME":"TEME","BSTAR":"0.00029252000000","GP_ID":"224198730","TLE_LINE2":"2 51116  53.2160 332.8216 0001533  89.5204 270.5964 15.08856048 57918","RA_OF_ASC_NODE":"332.8216","OBJECT_ID":"2022-005N","ARG_OF_PERICENTER":"89.5204","DECAY_DATE":null,"PERIAPSIS":"538.636","CENTER_NAME":"EARTH","FILE":"3767525","LAUNCH_DATE":"2022-01-19","MEAN_MOTION_DOT":"0.00004373","REV_AT_EPOCH":"5791","INCLINATION":"53.2160","MEAN_ELEMENT_THEORY":"SGP4","ELEMENT_SET_NO":"999","CLASSIFICATION_TYPE":"U","OBJECT_NAME":"STARLINK-3243","PERIOD":"95.437","MEAN_MOTION":"15.08856048","MEAN_ANOMALY":"270.5964","NORAD_CAT_ID":"51116","TIME_SYSTEM":"UTC","ECCENTRICITY":"0.00015330","TLE_LINE1":"1 51116U 22005N   23032.25509543  .00004373  00000-0  29252-3 0  9996","COUNTRY_CODE":"US","EPOCH":"2023-02-01T06:07:20.245152","APOAPSIS":"540.757","OBJECT_TYPE":"PAYLOAD","RCS_SIZE":"LARGE"},{"EPHEMERIS_TYPE":"0","SITE":"AFETR","BSTAR":"-0.00012052000000","REF_FRAME":"TEME","SEMIMAJOR_AXIS":"6917.901","MEAN_MOTION_DDOT":"0.0000000000000","GP_ID":"224203094","RA_OF_ASC_NODE":"330.5763","OBJECT_ID":"2022-005P","TLE_LINE2":"2 51117  53.2150 330.5763 0001297  85.5298 274.5843 15.08833152 59100","PERIAPSIS":"538.869","DECAY_DATE":null,"ARG_OF_PERICENTER":"85.5298","MEAN_MOTION_DOT":"-0.00002205","CENTER_NAME":"EARTH","FILE":"3767635","LAUNCH_DATE":"2022-01-19","REV_AT_EPOCH":"5910","MEAN_ELEMENT_THEORY":"SGP4","INCLINATION":"53.2150","ELEMENT_SET_NO":"999","CLASSIFICATION_TYPE":"U","OBJECT_NAME":"STARLINK-3391","MEAN_MOTION":"15.08833152","PERIOD":"95.438","NORAD_CAT_ID":"51117","MEAN_ANOMALY":"274.5843","ECCENTRICITY":"0.00012970","TIME_SYSTEM":"UTC","TLE_LINE1":"1 51117U 22005P   23032.75558533 -.00002205  00000-0 -12052-3 0  9999","EPOCH":"2023-02-01T18:08:02.572512","COUNTRY_CODE":"US","RCS_SIZE":"LARGE","APOAPSIS":"540.664","OBJECT_TYPE":"PAYLOAD"},{"COUNTRY_CODE":"US","EPOCH":"2023-02-01T02:40:40.073952","TLE_LINE1":"1 51118U 22005Q   23032.11157493  .00001792  00000-0  13063-3 0  9991","APOAPSIS":"540.526","OBJECT_TYPE":"PAYLOAD","RCS_SIZE":"LARGE","PERIOD":"95.437","MEAN_MOTION":"15.08849540","OBJECT_NAME":"STARLINK-3394","TIME_SYSTEM":"UTC","ECCENTRICITY":"0.00011710","MEAN_ANOMALY":"274.3072","NORAD_CAT_ID":"51118","FILE":"3767525","CENTER_NAME":"EARTH","LAUNCH_DATE":"2022-01-19","MEAN_MOTION_DOT":"0.00001792","ARG_OF_PERICENTER":"85.8054","DECAY_DATE":null,"PERIAPSIS":"538.906","CLASSIFICATION_TYPE":"U","ELEMENT_SET_NO":"999","REV_AT_EPOCH":"5789","INCLINATION":"53.2173","MEAN_ELEMENT_THEORY":"SGP4","MEAN_MOTION_DDOT":"0.0000000000000","SEMIMAJOR_AXIS":"6917.851","BSTAR":"0.00013063000000","REF_FRAME":"TEME","EPHEMERIS_TYPE":"0","SITE":"AFETR","TLE_LINE2":"2 51118  53.2173 333.4636 0001171  85.8054 274.3072 15.08849540 57895","RA_OF_ASC_NODE":"333.4636","OBJECT_ID":"2022-005Q","GP_ID":"224197230"},{"INCLINATION":"53.2152","REV_AT_EPOCH":"5791","MEAN_ELEMENT_THEORY":"SGP4","ELEMENT_SET_NO":"999","CLASSIFICATION_TYPE":"U","DECAY_DATE":null,"PERIAPSIS":"538.862","ARG_OF_PERICENTER":"89.6991","MEAN_MOTION_DOT":"0.00003673","FILE":"3767525","LAUNCH_DATE":"2022-01-19","CENTER_NAME":"EARTH","GP_ID":"224197480","OBJECT_ID":"2022-005R","RA_OF_ASC_NODE":"332.9719","TLE_LINE2":"2 51119  53.2152 332.9719 0001230  89.6991 270.4142 15.08850744 57913","EPHEMERIS_TYPE":"0","SITE":"AFETR","REF_FRAME":"TEME","BSTAR":"0.00024868000000","SEMIMAJOR_AXIS":"6917.848","MEAN_MOTION_DDOT":"0.0000000000000","RCS_SIZE":"LARGE","APOAPSIS":"540.563","OBJECT_TYPE":"PAYLOAD","TLE_LINE1":"1 51119U 22005R   23032.22197821  .00003673  00000-0  24868-3 0  9998","EPOCH":"2023-02-01T05:19:38.917344","COUNTRY_CODE":"US","NORAD_CAT_ID":"51119","MEAN_ANOMALY":"270.4142","TIME_SYSTEM":"UTC","ECCENTRICITY":"0.00012300","OBJECT_NAME":"STARLINK-3390","PERIOD":"95.437","MEAN_MOTION":"15.08850744"},{"TLE_LINE2":"2 51120  53.2168 333.0066 0001650  86.9976 273.1205 15.08853907 57912","OBJECT_ID":"2022-005S","RA_OF_ASC_NODE":"333.0066","GP_ID":"224198231","MEAN_MOTION_DDOT":"0.0000000000000","SEMIMAJOR_AXIS":"6917.838","BSTAR":"0.00032997000000","REF_FRAME":"TEME","EPHEMERIS_TYPE":"0","SITE":"AFETR","CLASSIFICATION_TYPE":"U","ELEMENT_SET_NO":"999","INCLINATION":"53.2168","REV_AT_EPOCH":"5791","MEAN_ELEMENT_THEORY":"SGP4","LAUNCH_DATE":"2022-01-19","FILE":"3767525","CENTER_NAME":"EARTH","MEAN_MOTION_DOT":"0.00004969","ARG_OF_PERICENTER":"86.9976","DECAY_DATE":null,"PERIAPSIS":"538.561","TIME_SYSTEM":"UTC","ECCENTRICITY":"0.00016500","MEAN_ANOMALY":"273.1205","NORAD_CAT_ID":"51120","PERIOD":"95.437","MEAN_MOTION":"15.08853907","OBJECT_NAME":"STARLINK-3398","APOAPSIS":"540.844","OBJECT_TYPE":"PAYLOAD","RCS_SIZE":"LARGE","COUNTRY_CODE":"US","EPOCH":"2023-02-01T05:09:03.129984","TLE_LINE1":"1 51120U 22005S   23032.21461956  .00004969  00000-0  32997-3 0  9993"}];
